[{"OBJECT_NAME":"KUIPER-00133","OBJECT_ID":"2025-217C","EPOCH":"2026-03-09T08:50:36.743712","MEAN_MOTION":14.79933056,"ECCENTRICITY":0.00022054,"INCLINATION":51.9046,"RA_OF_ASC_NODE":54.54,"ARG_OF_PERICENTER":33.2283,"MEAN_ANOMALY":326.8818,"EPHEMERIS_TYPE":0,"CLASSIFICATION_TYPE":"U","NORAD_CAT_ID":65764,"ELEMENT_SET_NO":999,"REV_AT_EPOCH":2469,"BSTAR":0.0001462935,"MEAN_MOTION_DOT":8.94e-6,"MEAN_MOTION_DDOT":0},{"OBJECT_NAME":"COSMOS 2251 DEB","OBJECT_ID":"1993-036KH","EPOCH":"2026-03-09T23:23:46.177728","MEAN_MOTION":14.80244955,"ECCENTRICITY":0.00164046,"INCLINATION":73.9997,"RA_OF_ASC_NODE":304.4323,"ARG_OF_PERICENTER":40.701,"MEAN_ANOMALY":20.1863,"EPHEMERIS_TYPE":0,"CLASSIFICATION_TYPE":"U","NORAD_CAT_ID":34070,"ELEMENT_SET_NO":999,"REV_AT_EPOCH":89900,"BSTAR":0.0020937086,"MEAN_MOTION_DOT":0.00015973,"MEAN_MOTION_DDOT":0}]
